ONEWEB-0461             
1 51649U 22012AD  24270.17373609  .00000072  00000+0  15132-3 0  9996
2 51649  87.9113 131.1582 0001654  77.7513 282.3804 13.17561103132341
ONEWEB-0463             
1 51650U 22012AE  24269.85160216  .00000079  00000+0  16980-3 0  9998
2 51650  87.9120 131.2733 0001567  77.8881 282.2426 13.17674277130795
ONEWEB-0464             
1 51651U 22012AF  24270.22892696  .00000754  00000+0  21241-2 0  9991
2 51651  87.8976 161.4584 0001952  86.6078 273.5273 13.10374547128258
ONEWEB-0468             
1 51652U 22012AG  24270.15920983  .00000681  00000+0  19151-2 0  9991
2 51652  87.8975 161.4648 0001759  76.8303 283.3021 13.10372733128217
ONEWEB-0473             
1 51653U 22012AH  24269.60976458  .00000562  00000+0  15745-2 0  9991
2 51653  87.8979 161.5767 0001646  77.2928 282.8383 13.10375348126856
ONEWEB-0474             
1 51654U 22012AJ  24270.13595916 -.00000011  00000+0 -66688-4 0  9993
2 51654  87.8972 161.4604 0001677  81.1974 278.9344 13.10375841128200
ONEWEB-0475             
1 51655U 22012AK  24270.16705289  .00000085  00000+0  18695-3 0  9996
2 51655  87.9117 131.1901 0001238 111.3791 248.7473 13.17602079132142
ONEWEB-0490             
1 54113U 22138A   24269.70358532  .00000156  00000+0  35697-3 0  9990
2 54113  87.9105  70.1605 0001822  96.5258 263.6082 13.19725797 93801
